{"type":"FeatureCollection","features":[{"type":"Feature","geometry":{"type":"Polygon","coordinates":[[[79.41460091605796,19.53271682805766],[79.42303567549888,19.53034963014596],[79.42259772947122,19.53823254806979],[79.4333702568265,19.53745101757814],[79.46899062058237,19.50976447687381],[79.47150637586527,19.50033474979114],[79.48266102720567,19.50647032238533],[79.49841487402705,19.50588909639538],[79.51862003905234,19.52037447453992],[79.51864346998909,19.54330421670703],[79.54172611294082,19.55477685445897],[79.5529633389998,19.524359540703],[79.59424680245084,19.50705811879059],[79.6029891356554,19.51474052687056],[79.61417025418307,19.55986956860199],[79.63219004672257,19.57528459383206],[79.70901847264413,19.58467859946981],[79.74408212211468,19.60890599787988],[79.77862583970378,19.59986809913285],[79.80651356490328,19.57895773692752],[79.8163540446507,19.57422782172123],[79.8312037751696,19.54030704562699],[79.84519970254944,19.53340608195672],[79.86459876858838,19.51070990417597],[79.91451488061102,19.49623119349123],[79.93242209368503,19.47674333054336],[79.94483433050546,19.47001945087548],[79.94762407836895,19.44988409761051],[79.97240902449809,19.41642511363052],[79.97794672598947,19.40056926618087],[79.9796819045167,19.38887302938042],[79.97183719214424,19.38177066686412],[79.96798053057658,19.35684034511102],[79.95909132865722,19.33615464398789],[79.96588177856545,19.30324985476418],[79.95057629992405,19.28925205494674],[79.93636940814879,19.26434679399563],[79.92451761917025,19.22593013802485],[79.92546547733836,19.21085259685702],[79.94484025367272,19.18029794656987],[79.94613602775493,19.17048054886439],[79.9144986821079,19.14559476257175],[79.87377743494059,19.1242718503111],[79.85943279774096,19.10883981229812],[79.85838729050757,19.0960750912383],[79.86910841427995,19.04343068709982],[79.87610653480807,19.03908320053611],[79.89923336896582,19.0404631944005],[79.92064097763239,19.04993346793947],[79.92892886756245,19.04941845378689],[79.93707839938004,19.04291409854163],[79.9402750580782,19.03278767362136],[79.94311863651114,18.99147133476938],[79.95854384590851,18.94225586823084],[79.95511003787128,18.90388341594021],[79.96310157120067,18.86600344456495],[79.96000902411623,18.85880059237715],[79.92710946253382,18.83856533582515],[79.91543221865342,18.82541208623251],[79.92367479717248,18.80801233544051],[79.96296800209986,18.77465198454281],[80.0297539822084,18.75840548661876],[80.03978989304925,18.75088087979101],[80.05280836205961,18.72508899112879],[80.06463103317068,18.72329203348714],[80.07459635814456,18.71054675481392],[80.08851680337426,18.70730708452898],[80.11611129331548,18.68109487487757],[80.12324136709512,18.68078648355138],[80.1285651306724,18.68746402889584],[80.14847297446806,18.69311715801699],[80.15771768282434,18.70101048190704],[80.16863282784284,18.69973996664254],[80.17871359054173,18.68329874146351],[80.19657763357854,18.68082598027165],[80.2004371473822,18.6925904924577],[80.21163809659375,18.7052011649559],[80.21934250710773,18.70794952961359],[80.23040684431909,18.70183706041835],[80.25222543660185,18.70682240196651],[80.27105865727914,18.72306428885202],[80.27171125195443,18.72333573904528],[80.28360572400307,18.71754544728909],[80.30179125443658,18.69032419386305],[80.31867301872815,18.64218249396946],[80.32748459699935,18.63541390685258],[80.33420323745378,18.61341870458802],[80.34464484033367,18.59723527513029],[80.35563037151852,18.59467222835156],[80.36755608985074,18.60823369255565],[80.37567152897267,18.61070514050146],[80.38844869617685,18.59669351178903],[80.39584509338121,18.60496568326322],[80.41999837896105,18.61043380776738],[80.42240267933043,18.61515575381657],[80.42761202055718,18.61291193741123],[80.45612329185336,18.62939692560462],[80.4655358575617,18.62398216355888],[80.48826651393864,18.63112749528511],[80.50158678067264,18.62156444548666],[80.51472612742752,18.61938175279042],[80.53449926659272,18.58837382600224],[80.55640306584999,18.57978595473943],[80.57150171458386,18.56464565110594],[80.599790606836,18.55306428114405],[80.61841963952081,18.52759089182199],[80.63763977705425,18.52255117124498],[80.64090481577398,18.51133505614867],[80.63704481853173,18.50476370347623],[80.65528302640956,18.47589939013104],[80.68614754349301,18.45824436882792],[80.68800742280646,18.44739878100564],[80.70162398121347,18.44458536157202],[80.70541195990148,18.43968870472292],[80.69831287976038,18.43766685927022],[80.69895877754723,18.42143612080002],[80.71829253399108,18.40973734400222],[80.72289008201136,18.41515980278969],[80.73483434690141,18.41286439283975],[80.73195666508158,18.40101991583945],[80.71959135828234,18.39112952817984],[80.72942706082118,18.37881862094897],[80.72686079429869,18.36933771837246],[80.73152783265607,18.35479630127439],[80.74763267569256,18.33000729115972],[80.74875464487657,18.30899294126696],[80.7581495086163,18.3009936351937],[80.75980395776972,18.2894409341435],[80.76908823960196,18.28767222412143],[80.78024936628034,18.266116800545],[80.79385701956694,18.25948246915391],[80.79264975557756,18.24949529391098],[80.73713495776242,18.22206038697621],[80.73702823242212,18.17678674144129],[80.74407024648353,18.17104013719587],[80.7991049080028,18.16821483051759],[80.8174622350966,18.18914866211538],[80.82406151066077,18.19108215171809],[80.82358667457821,18.23612037927643],[80.8367210969416,18.23896048609709],[80.84342410981492,18.2324826904995],[80.86593584245314,18.23017297548097],[80.87260372662578,18.21062033620975],[80.87096131782702,18.20483846679829],[80.8529031297739,18.20204464608099],[80.85853525349917,18.18649882527443],[80.86015188070523,18.1479098371085],[80.86665905741012,18.13696704617965],[80.89107156837615,18.13602537671471],[80.91416386914781,18.1412144193982],[80.95161469037369,18.16370370947249],[80.95765075418775,18.17359288229947],[80.97902436345564,18.17545820860283],[80.97846084097282,18.15443477266862],[80.95550560710882,18.12910550349893],[80.9492502655505,18.08290767376657],[80.96904408471593,18.04647407742593],[80.96425213563187,18.03818645697956],[80.97962091365949,18.00331548306189],[80.98767851228271,17.9442127973983],[80.99840068458465,17.91747624032584],[80.99415704279919,17.88063076930756],[80.99644090134802,17.84842970361085],[81.00832411562578,17.7981255372273],[81.04363380686476,17.78279225417794],[81.07326118759906,17.78649919508069],[81.09765745923563,17.81242072646359],[81.12791452346501,17.82704805161472],[81.16613146494743,17.85765144737621],[81.1993036832602,17.84698248421233],[81.21560371772557,17.83455755497444],[81.23929207324502,17.82607047233382],[81.24836759209661,17.81667646655187],[81.26611706380055,17.80948679627081],[81.35403626488991,17.81227973984036],[81.37707708677397,17.80456167124315],[81.39229201275229,17.79416584048052],[81.39179927812798,17.81545081820655],[81.4016401808684,17.82098291937812],[81.41558365296457,17.81345613199231],[81.43411032924713,17.8319645751078],[81.44418136006973,17.82500520816031],[81.47424316477581,17.83801562237255],[81.49003069313855,17.81273380904223],[81.5183892650477,17.81628147702216],[81.53016135590433,17.82293826162858],[81.56366846682792,17.82573545436064],[81.5743031997432,17.83720033551074],[81.59416967847176,17.83407149496831],[81.61653321023718,17.82210481935463],[81.62232695596852,17.83347438397004],[81.63012996298737,17.83205002751338],[81.64075924273025,17.84022539105627],[81.66190975170137,17.88122713062904],[81.67089673075975,17.8872667167402],[81.68608095927706,17.88533446669344],[81.69963103036625,17.90099682458696],[81.70433721561557,17.8777153642312],[81.70964912514482,17.87179627571645],[81.76328218592143,17.90256814853841],[81.77265987057736,17.89752701735097],[81.77456984824943,17.88643192935962],[81.80690127323138,17.86917689282076],[81.81136432901214,17.85952608245849],[81.78950245589738,17.83992693574744],[81.77422147080593,17.84002328181109],[81.76414131071054,17.82709056782192],[81.74671980386047,17.83184312215958],[81.7313500375479,17.8247045672303],[81.7119787937676,17.81026472475345],[81.70632951886398,17.79101335869411],[81.69902434352481,17.7823567105587],[81.67595791127202,17.77618297103042],[81.63398908057641,17.7736815768343],[81.61577278602381,17.75102583562512],[81.58348036184816,17.73241516274251],[81.5815606883611,17.69324588609869],[81.57295500287061,17.68226778172905],[81.56778363006532,17.68166981691761],[81.54429159798906,17.63605426610884],[81.54154595360528,17.63760394175202],[81.52422504482179,17.62151778349939],[81.52349813192917,17.60587416384508],[81.51646370556114,17.60034668185045],[81.53667908837053,17.58456639242461],[81.53415837863312,17.57410864743632],[81.52963702551628,17.57178860065502],[81.53182883057329,17.5674958167671],[81.52661761112095,17.56049139610523],[81.52168636456747,17.56288397185061],[81.51227154557328,17.54497995719108],[81.51508899632303,17.53361880571912],[81.51049188421305,17.51939444334095],[81.51659308590034,17.50904401207324],[81.5236034177522,17.50888383001433],[81.52464714506544,17.50483744181904],[81.51574451082257,17.48448429621609],[81.49834408723176,17.48149327269131],[81.49563527245063,17.47738059795882],[81.50310670539196,17.46391271691373],[81.48701132914438,17.43515121599783],[81.46036336780897,17.41124804154858],[81.43977458350281,17.37990404923468],[81.42647485052291,17.38053576867931],[81.42396158458962,17.36758417480612],[81.40808041250166,17.36960931003504],[81.3883995338425,17.36238993883967],[81.37972744948917,17.3635115523433],[81.35396342446495,17.37751825999049],[81.35009545575676,17.38235908353754],[81.35176587813207,17.39541388742783],[81.33415912842392,17.39864803749703],[81.30524731384521,17.3462204241115],[81.27397369053419,17.31751071837424],[81.2456223635037,17.32611537148694],[81.23351922962371,17.32068589622751],[81.21026168057004,17.32637068291877],[81.19036517461694,17.32513380343748],[81.17661427470962,17.28798608661327],[81.17813270140354,17.26936165701258],[81.18755049649116,17.25497626855048],[81.17360666085976,17.23104714833995],[81.10137146568506,17.22253420785993],[81.07942052328592,17.21540538611276],[81.05492691685292,17.22534680036219],[81.04758486296062,17.20559757615556],[81.03199911228705,17.19210469690287],[81.01250695584072,17.19479792132776],[80.99841348501478,17.19064784936647],[80.97544006296044,17.20082386689147],[80.96773838623531,17.19872884506473],[80.9682107028115,17.20313207870758],[80.95892798932567,17.20526405306493],[80.94296222714797,17.21841831934522],[80.93538890598123,17.22022256084268],[80.91891083662951,17.21993709752219],[80.9165497168528,17.21583191753986],[80.91813767229957,17.1900515365583],[80.92549442788996,17.18355749487509],[80.92384886648476,17.15774231337499],[80.9096366624789,17.15392625690346],[80.87947366889472,17.160574657765],[80.87962025478863,17.13435739143407],[80.8679474926251,17.12334478791446],[80.87633502146075,17.10558273429891],[80.86750502299249,17.08063383900457],[80.87697783906202,17.07020722607195],[80.84519636272871,17.03962539077632],[80.83351983355381,17.05091242014212],[80.79663893766325,17.06224988056438],[80.76478435721269,17.06692538387091],[80.73886386876386,17.0796355762403],[80.69943844216381,17.08379472128294],[80.6950942954361,17.07488154125275],[80.67944593040933,17.07232213219063],[80.67323118443203,17.0670012413704],[80.67108536975269,17.07034439174102],[80.65353463187465,17.06893728400156],[80.6497156180427,17.07175690726032],[80.6567480945562,17.08929165446093],[80.6680216797486,17.09508051691606],[80.67039738471,17.10120550868863],[80.6418208594412,17.11602581036413],[80.64529135424962,17.12346105637523],[80.63684458777357,17.12836766980643],[80.61818900271372,17.12855538739465],[80.57996839082244,17.15336838678002],[80.5626068836083,17.13318948870947],[80.55411914201073,17.13390092452424],[80.52765033760996,17.11925617165376],[80.51394713257802,17.12233658635921],[80.5127895702232,17.10922870917228],[80.50415253623464,17.09329402775537],[80.51001059126568,17.0871897838627],[80.50550122419496,17.06913838242573],[80.49091889510792,17.05129503777329],[80.47136335182684,17.05069177886744],[80.4648474900266,17.0303468805664],[80.43861746370511,17.03790706182535],[80.43170588995606,17.05584673416762],[80.4170325259459,17.0739328935468],[80.41897017119777,17.09234616788199],[80.41212594834258,17.09250771408931],[80.39442481515442,17.07644546076332],[80.3857251378131,17.06710918207158],[80.39850076047975,17.0526506806187],[80.39576366108301,17.03577375760991],[80.40748191191808,17.02588077447973],[80.40703995110498,17.01584260742881],[80.38785859710245,17.0093127449269],[80.36501269284543,16.97525322301015],[80.44744806845183,16.95593245738274],[80.49332564171696,16.92719867748308],[80.49711596206951,16.95466961706411],[80.50512185973695,16.95680310758729],[80.52649953546708,16.9477942844447],[80.53542346860016,16.96118741247363],[80.58075043752481,16.93734086490719],[80.58433565528462,16.92915421335474],[80.60220991021741,16.91879061259612],[80.58684712657396,16.90370331830383],[80.59414471375042,16.89987474832934],[80.59495664788408,16.88408940729093],[80.57764513757861,16.87978544808248],[80.56894303344289,16.86968165311641],[80.57027318518155,16.84734242499275],[80.56337627716559,16.83326215022341],[80.5652986336028,16.82703908511682],[80.5760322736869,16.82640782351042],[80.59452939113474,16.80267734756673],[80.61284862706881,16.79386389740829],[80.59703737193192,16.79288991049791],[80.57803719136085,16.77972510802943],[80.57013317925092,16.76880583880558],[80.55199261368051,16.77504787351278],[80.51631708345776,16.77573936029913],[80.50329888576947,16.77986235421304],[80.48551395882906,16.79199620852098],[80.46499838051642,16.79522186650042],[80.46497493079012,16.82027876619119],[80.4536257342289,16.82273248836995],[80.44076702836627,16.8341069703798],[80.42835945910917,16.83811833956398],[80.42634444409,16.84982991415807],[80.38284123164308,16.86544700772142],[80.37832231663073,16.85271436362305],[80.4080031527771,16.84870528399595],[80.4043810503809,16.83244191108597],[80.39863731338852,16.83330397954289],[80.38569689395985,16.82532368358489],[80.38534926132847,16.8171287540969],[80.38173055205199,16.81601069958085],[80.37344275783457,16.82983047451354],[80.38012679612747,16.84168695716113],[80.37272842021758,16.84020315964482],[80.37364529992995,16.85205647018529],[80.34051792501754,16.85968953126741],[80.34434293229324,16.87452401007656],[80.32178769148092,16.87929643595415],[80.32455644991671,16.90606840066718],[80.31270765737972,16.91743501895897],[80.31615959229833,16.94862185176904],[80.30328029213271,16.95424892281266],[80.30732978943279,16.97364688610191],[80.29303682733276,16.97693897353506],[80.29406953912849,16.99592327851545],[80.28310696061438,17.00782034082909],[80.27047268885113,17.00431152869883],[80.26410876143929,16.99755049692197],[80.24040259218819,17.00246970916546],[80.22616340635489,17.01564307877033],[80.22287015943878,17.00815903306166],[80.21143191534335,17.01059518245014],[80.20206018081768,17.01734691175617],[80.19959163145047,17.02653581237346],[80.204101388215,17.03833139893486],[80.19646356566354,17.04407621309545],[80.18729775609013,17.01999768270878],[80.17017577361347,17.01686934589551],[80.16777426864498,17.00563366687364],[80.15336767350878,17.00698506357831],[80.14050658604269,16.99035493046503],[80.12048505840073,16.99183513259466],[80.12026186281656,16.98787419032108],[80.09541722298289,16.99039594056006],[80.09135610530008,16.96827952586429],[80.05628803232057,16.9707819856903],[80.05761053537691,16.96365447836774],[80.04812382877266,16.949430481267],[80.05142419516152,16.93828623216336],[80.040503124915,16.91966379928517],[80.01715204757716,16.91729313871182],[80.01395675319583,16.90390454405609],[80.00233413902771,16.87136054275337],[80.00374889720418,16.86172310287183],[80.01806472578957,16.85369729732464],[80.04662747747959,16.85320933156499],[80.04822340845678,16.83289030346734],[80.07292100455199,16.81819905709781],[80.06686335887092,16.78840046237238],[80.0543086150097,16.76665480414072],[80.05294110012245,16.74444579194087],[80.03794632260302,16.72979366918512],[80.03095570084359,16.71525192724793],[80.00764263575083,16.70930206476688],[79.9975486196439,16.70227990245867],[79.97939629555238,16.66567796011021],[79.96162571890649,16.64291668913824],[79.93237278107956,16.63164751538924],[79.90761147066942,16.63573127125583],[79.89291235152098,16.65216432692659],[79.885961754979,16.68642306713887],[79.87837890697038,16.69700552567256],[79.8510815518762,16.70617106126315],[79.81728239098936,16.69219994560178],[79.78585193857846,16.73046725055324],[79.77279016753383,16.73089742958224],[79.74442676167276,16.71918383476828],[79.72420822277942,16.69125745968792],[79.698812754993,16.69168830836478],[79.68382497108459,16.69488956715477],[79.66492109582211,16.68825306974968],[79.64969132475373,16.67066899858095],[79.63309388003975,16.66062896280459],[79.59731117694878,16.67312338745554],[79.57609768209018,16.65039782778483],[79.54339000580323,16.63321211900606],[79.52543944447058,16.63103592525067],[79.50443944497121,16.63646953394526],[79.4943160130344,16.63387216529806],[79.48490490232258,16.62323492638902],[79.46162776057452,16.62312019955428],[79.46157043338673,16.62314320305181],[79.44109601163943,16.61500768447097],[79.43342068452066,16.59213906910386],[79.41841808425293,16.58000235638319],[79.37858119483865,16.58404305057016],[79.35132357403279,16.57933432307545],[79.33956849285762,16.5822952228927],[79.31778757652965,16.57461959609273],[79.30809426696366,16.57469603924512],[79.28915586251624,16.56075496960936],[79.25710876636931,16.56612379534529],[79.24524682186394,16.53257565079614],[79.22839303238293,16.52498586736577],[79.221411279062,16.5155451689615],[79.21494068195122,16.48259403755048],[79.2334668845237,16.45985376188248],[79.21178771548692,16.4479900301913],[79.20795088019366,16.38348131375862],[79.21252144302687,16.37392545055969],[79.21069849264947,16.35665496278029],[79.23434272634084,16.33493032026541],[79.22266305583182,16.23649417984484],[79.21583812313894,16.2271268876165],[79.19231077635723,16.21643832672175],[79.15922563550279,16.20896180416203],[79.12166912723961,16.23282063921358],[79.09949885433255,16.22346142368019],[79.08278396980775,16.23106544499971],[79.07111841033849,16.22778362424988],[79.05093075333961,16.23839189413163],[79.01284147965933,16.24093370654574],[78.9857825389256,16.21106495445184],[78.96033622244293,16.20941505698701],[78.90547144418088,16.18393573922715],[78.9041530876973,16.17680197707128],[78.91475700395459,16.14966800630458],[78.9239392177339,16.13770587641132],[78.92270163312884,16.12692351346733],[78.92135699667033,16.10312294228988],[78.88958334147414,16.08500482308893],[78.87295295154185,16.14360219908119],[78.85476993981088,16.14915143047917],[78.83544747918144,16.14581574170668],[78.83311601339524,16.13766993861632],[78.84248655581945,16.09555497117948],[78.8403602466316,16.0784837673063],[78.81947786183254,16.0486497506339],[78.80128144835979,16.03811558530479],[78.7918976166328,16.02467123874714],[78.75107701148443,16.01609079812907],[78.73557641529707,16.00849468912436],[78.7236488642402,16.02046321783342],[78.68569107197943,16.03321075683847],[78.65038369849424,16.0728247889623],[78.64980957163732,16.07950955737923],[78.6325035175366,16.08679262300819],[78.61003884744939,16.08742112187414],[78.59872481269257,16.08142731090105],[78.58701302290498,16.06373305918541],[78.54990984860963,16.04303379218666],[78.47486656587165,16.0688440213788],[78.4079879646585,16.07515462741175],[78.39772390483729,16.06647327820518],[78.38448368215654,16.06494869290121],[78.36551049565075,16.04713259173267],[78.34782367935198,16.04782709883247],[78.32665060924309,16.03708733146199],[78.32201938592917,16.01746431577923],[78.31235442784116,16.01186141623683],[78.2995134190401,16.01189631029831],[78.2772835211691,16.02466756370439],[78.26096013693868,16.02616940996294],[78.255600967996,16.01320613977394],[78.25908316846055,15.99264659239257],[78.25110456906931,15.97295635019687],[78.25109865156435,15.93513018021431],[78.23223992525479,15.92434482001721],[78.18453700655316,15.91016503471104],[78.17954852231348,15.90228135258393],[78.19004704233194,15.89261734892156],[78.17678733796001,15.87710707238396],[78.17544155709496,15.85837557308495],[78.15888061318206,15.85410833637794],[78.13564670174448,15.85504837890948],[78.13018501035391,15.85104834044285],[78.13429596612478,15.83690712671628],[78.09908948010127,15.83635630281401],[78.08367129089719,15.8412676546264],[78.08506546386498,15.84534598454382],[78.07147274963602,15.85071726817226],[78.07163777578121,15.86209362288755],[78.05595041774363,15.86667562674063],[78.05632059629457,15.87499264284586],[78.04687757066112,15.8752544763961],[78.04505695135693,15.90448105926227],[78.03200437356823,15.9076900377857],[78.03111549685259,15.903301377872],[78.02563097680827,15.90270769827718],[78.00652177462378,15.86308577155357],[77.97574999696735,15.88345358787174],[77.93640282190132,15.88396110940811],[77.88879267670492,15.90614851569298],[77.87809915383122,15.9050789787227],[77.85980768861884,15.88460114294631],[77.83810388213796,15.88523846337251],[77.80505265127712,15.87472505414447],[77.78270636433768,15.87668683742544],[77.76764775149226,15.88622124012168],[77.74884055948229,15.88560555807644],[77.72423237886827,15.89615985988503],[77.68455767619066,15.88359310656034],[77.65756319270768,15.88626643249433],[77.63720258805891,15.89605066821645],[77.61148716087992,15.91822907534085],[77.59345267121212,15.91225984776288],[77.58095127765075,15.91881733669611],[77.54912261220284,15.91946011295511],[77.5135702566918,15.92713150408336],[77.51973638812319,15.96700996001874],[77.51053977339109,15.97558097564474],[77.51081774050836,15.99157269221508],[77.51401233480856,16.00839701292192],[77.50444148377142,16.01136480161803],[77.49376682201238,16.03658967024294],[77.49949033735255,16.05375349952805],[77.49627255989672,16.05464740561135],[77.49955864282583,16.0613705912404],[77.50273977036075,16.05915890700329],[77.5069119259798,16.07966448844265],[77.49369288829088,16.0863621567352],[77.50105933399475,16.1065283144909],[77.5133098457161,16.1080493314383],[77.50025599769894,16.12061393719441],[77.4898280752944,16.11964160645874],[77.49067837058139,16.1599952304344],[77.48562421714792,16.16490742680241],[77.49952103975117,16.19857324727783],[77.50118003016642,16.22172963101252],[77.51502494455814,16.22196676329578],[77.51568982361037,16.22780137609445],[77.51319947894318,16.23086028795042],[77.49237215085924,16.22932888630882],[77.49009390403432,16.25518906109974],[77.5024390512003,16.26308610201034],[77.50485046065258,16.27582838875691],[77.52190440449361,16.27805774582397],[77.53702401001522,16.26650926781214],[77.545110473909,16.29173631798062],[77.56324325247033,16.30165729001356],[77.5689129162914,16.3036256540941],[77.58212347696015,16.29166884130205],[77.59784133541397,16.29313136287378],[77.59205218503644,16.30218957441805],[77.59541573385813,16.31814176202878],[77.58825830600777,16.33279617893862],[77.59536344642677,16.33995983487322],[77.59396105549503,16.34391065220126],[77.57275515221866,16.34095585499643],[77.53880784758202,16.35822297599334],[77.5234379603992,16.37584882697219],[77.51440440952568,16.3749942375415],[77.48972922803134,16.38503482739357],[77.44102614688265,16.3807816093461],[77.42889298855783,16.36921171222842],[77.41945473008626,16.36630690740815],[77.40102552997136,16.37166073143943],[77.37870820744787,16.38542626267399],[77.34975315494972,16.38365005421017],[77.33346006494429,16.39538311983553],[77.31397194336245,16.3980220126702],[77.28821211846348,16.4087844421272],[77.26899222249362,16.43047244158611],[77.26211198886142,16.4518494680263],[77.23646189556547,16.47325800922248],[77.24585422110226,16.4777578576212],[77.26513100542616,16.47282186001431],[77.29413585599605,16.4769775632996],[77.29874912100296,16.49616937576014],[77.32033556010897,16.49222264891244],[77.32959848593211,16.48591758165948],[77.35146794125627,16.49107230086268],[77.36904899134375,16.4886881385144],[77.37273761552851,16.50967606911856],[77.37911736584702,16.51456799536872],[77.40222579338449,16.52153070916233],[77.41651583374482,16.51826418970883],[77.4179953455986,16.54887942015222],[77.403779138727,16.551201086987],[77.39745393738494,16.56431686474983],[77.39264745460994,16.56400635576569],[77.39268462148445,16.5700044640908],[77.42151173075925,16.5682535525949],[77.43941127057809,16.58749073753217],[77.46199450980518,16.58500950914642],[77.46782455557813,16.60977163545712],[77.45821237194754,16.61072824999386],[77.45367677416334,16.61676060604849],[77.47424848998952,16.64816186145432],[77.46406825971587,16.65390110718574],[77.44471129232633,16.6392472713006],[77.43444481382377,16.64114813845458],[77.4386217725135,16.64534771117697],[77.42974877552953,16.65621898049405],[77.41904021296035,16.65845148237329],[77.41887589667239,16.66891043689477],[77.44248854395889,16.66967881322447],[77.44754360148657,16.67959868738431],[77.46401751603688,16.67661467117345],[77.46982604081016,16.68704663343455],[77.47387922975125,16.71531468783317],[77.44643253854505,16.72117641865485],[77.43848847347093,16.71169838877167],[77.42604409625233,16.72116050073774],[77.43108685339071,16.72343147282991],[77.4269785201859,16.72896334065635],[77.44318394420604,16.76251726155947],[77.43792245837139,16.77471782582736],[77.43962865835658,16.78943713640999],[77.4673264555896,16.78074585442592],[77.47463329467607,16.78153265436344],[77.4765386422972,16.78837112691376],[77.473427307621,16.78921373873149],[77.47430183651258,16.80232548604429],[77.46574405288703,16.8059305086677],[77.46328175670557,16.82221831072274],[77.45707311888837,16.83023984158466],[77.46410086593289,16.85060329742646],[77.46040375715526,16.88476584879732],[77.45600659474873,16.88565533978064],[77.45795884597761,16.90952063723937],[77.45400199666042,16.91415877180303],[77.46686573288443,16.91604058027386],[77.46979215462927,16.9223497668575],[77.46945565629936,16.92808090234582],[77.46424506074027,16.92986989492663],[77.46832745459174,16.93961163700555],[77.4655886006376,16.95788941500652],[77.47228646219449,16.95744247221531],[77.48147914448887,16.97073111043158],[77.47955205729203,16.99604072707632],[77.50235266631825,17.00959652423469],[77.50262281538761,17.01374665843062],[77.49498581397931,17.02708966463578],[77.49669388042861,17.04272174565602],[77.48814573827002,17.0471738593023],[77.47996947898756,17.0688078913143],[77.48102164129766,17.07924319003527],[77.46729695718668,17.08633820675916],[77.46289783236499,17.09409100700438],[77.46453709905339,17.10675494992717],[77.44583975271397,17.11796637770282],[77.4360477704803,17.11498930492251],[77.40670261267131,17.12452248517777],[77.40386690383279,17.13292410367366],[77.37795767974119,17.1399527368464],[77.3782693519631,17.15258396338392],[77.36694252317325,17.1544200775837],[77.36248790278145,17.16383695570996],[77.37194490600037,17.18113375188018],[77.37231592482263,17.1955694741988],[77.39393923147203,17.19440363508988],[77.39820665174247,17.21042601294323],[77.40379097163715,17.20990081793063],[77.40202046692431,17.21413073092221],[77.38880365623676,17.21533382142702],[77.38023271867736,17.22253832124049],[77.40831070995273,17.24121601448885],[77.42046077887267,17.23763453846156],[77.42646702889633,17.25673135977783],[77.45867774967643,17.27926444311066],[77.45492218047862,17.28724150760861],[77.43796987715743,17.29192012326865],[77.45606037510926,17.33123679443326],[77.45710964327236,17.34741334964251],[77.45111355957947,17.35938415749325],[77.4536602589208,17.37399594120524],[77.47914790924683,17.3707274335715],[77.47457776370196,17.36178072793408],[77.48356675767275,17.35533721919686],[77.51922553219036,17.36206088932009],[77.53245711055068,17.37541610314922],[77.53308875100647,17.3806963872287],[77.52626055738764,17.38193544649788],[77.5243577127506,17.38816095302374],[77.53788960408383,17.4060973931856],[77.51421824544329,17.41418390400562],[77.51308336252741,17.43109591138637],[77.53755882333941,17.44387733263585],[77.57600184129717,17.43097696301874],[77.5762470481494,17.45644057121669],[77.60386589998012,17.44420427555381],[77.61446084137715,17.44746654522528],[77.61527543919162,17.47289040643597],[77.63828493697673,17.47352361067743],[77.64482701247879,17.4775678784734],[77.6479144953948,17.49608037936319],[77.65710784528282,17.50616351018654],[77.65241694821712,17.48302854598827],[77.68874659208731,17.47561061092256],[77.68804795880524,17.48943242027674],[77.6925563891677,17.49894251368948],[77.68772765468846,17.51181563759867],[77.6754972885481,17.50861678793901],[77.66868325420428,17.51160632442185],[77.66205243118529,17.52282247030118],[77.62800157836043,17.52363518245993],[77.61210379839791,17.53476090249161],[77.59694482449392,17.53430688979952],[77.5938468718438,17.56451610286457],[77.55060223342473,17.55174006939791],[77.5374824906598,17.57544768067304],[77.52842873571363,17.57537145901281],[77.50694076426255,17.54229087723434],[77.50007249627434,17.54673841843719],[77.50047472361825,17.55620653235371],[77.49411521903109,17.56835598202818],[77.47801637843976,17.56665141179608],[77.46186222610872,17.58075185026493],[77.44309528612924,17.58404765826723],[77.4448148168766,17.60941046125347],[77.44878023692206,17.60934443787815],[77.45580963216541,17.63249119891477],[77.44827277594915,17.65112909240804],[77.45487418730579,17.67448654040013],[77.45248411514481,17.69471159095204],[77.46762775587608,17.70324375508975],[77.48429536379582,17.70586734304581],[77.48500045028553,17.70940958774476],[77.49241210204546,17.70838843981716],[77.49739891315014,17.71595145377018],[77.50929133574448,17.71653886765054],[77.52185692261604,17.72616795240852],[77.54602345492108,17.7272107634064],[77.54875304289781,17.73600981079939],[77.55683340081592,17.73761775842811],[77.56867107810693,17.74914695602261],[77.5691968436426,17.76649306169092],[77.55490496488815,17.76397389745095],[77.53756187090258,17.77993691479705],[77.53444375884379,17.77763314373993],[77.50638731277019,17.7853220774189],[77.51499192252179,17.80545335609487],[77.52908361508345,17.81293645867149],[77.5282766049551,17.82790092230923],[77.5467518330057,17.82848697778081],[77.54905644317468,17.8196270621101],[77.55417534031342,17.8203170847488],[77.56749309346364,17.84542092836159],[77.5649008454525,17.85118916814286],[77.56937927618202,17.85156254744892],[77.57005359776998,17.8676464886306],[77.57645357626186,17.87541848548577],[77.59922571052748,17.87332858707146],[77.60042576820263,17.88060120236677],[77.58604585824078,17.89384406698368],[77.58639201602763,17.90861157339467],[77.61909648769495,17.90405647435791],[77.62204958524323,17.92956902897942],[77.61873415775808,17.9394880430415],[77.62299966826541,17.94551732685149],[77.63256543308485,17.94666693650474],[77.63293657971808,17.9557985514428],[77.62459624823515,17.95959648029901],[77.63306325559822,17.96737689232207],[77.63726656886452,17.95232255428808],[77.64955144480041,17.95023374316551],[77.65590659250196,17.96883711727788],[77.64826274980253,17.98025248532185],[77.6520877213817,17.99389250251864],[77.64894923675341,17.9988715528948],[77.62783548840638,17.99677860069759],[77.6197088536477,18.00648699907998],[77.60751934023632,18.00984996950964],[77.60639115531623,18.01968868968961],[77.58835261013532,18.01213527389551],[77.58059245582074,18.03144812202552],[77.55395474480397,18.03581090640025],[77.54860570219326,18.06541529769715],[77.55746643664637,18.06383853715557],[77.56562063945249,18.0762928967021],[77.59682112844692,18.08653436005157],[77.60123001257045,18.10352131409128],[77.59462671471626,18.1312414785071],[77.59692952765573,18.15575648104167],[77.58122582231613,18.16286338701935],[77.57098313281752,18.19102423476912],[77.56340806783669,18.19632963158288],[77.56564041458425,18.20412824489216],[77.57500940998582,18.2018851760814],[77.58549682180225,18.21999843066088],[77.57193150534567,18.24428765507067],[77.58312932559122,18.26066569606657],[77.59486018549846,18.26517127902249],[77.60042905051318,18.27567744776775],[77.60540471104939,18.28118105676291],[77.58186997954468,18.28524210711359],[77.57288361526554,18.29308681402378],[77.56163673026055,18.28459177913805],[77.55157971380223,18.29210481442259],[77.55340458521087,18.2982033002559],[77.57154066795482,18.30890394289332],[77.57063983452552,18.31817733157861],[77.55821372274669,18.33148376695566],[77.52594806697388,18.34221393394132],[77.52046675851693,18.35725724772248],[77.5257437543127,18.3727617527234],[77.53887791792867,18.38590305639188],[77.55187330770758,18.38889796859946],[77.55697156844147,18.41919363457652],[77.52851425342226,18.42888953552023],[77.52788215878607,18.4420748528759],[77.54146069310977,18.44456771071247],[77.564501968004,18.43722738782332],[77.56938945301226,18.44277441050616],[77.58561339175279,18.44667544809553],[77.58393318325712,18.45607785768997],[77.55112634209826,18.46031705985465],[77.54894233519119,18.46848366983982],[77.57321198612978,18.46968640265152],[77.57674518778654,18.48662464156325],[77.59260342449184,18.48454112830712],[77.59462387688679,18.47674280569289],[77.60345694295803,18.47667360720141],[77.60506030364193,18.49616567836312],[77.5947667470361,18.49600329690082],[77.58602943191508,18.5042090931548],[77.58787744947841,18.51307203715031],[77.59719706629535,18.5160989016976],[77.6004032848502,18.52251300356943],[77.59669184161804,18.53041524585647],[77.5908128803096,18.52687969558087],[77.59649498197228,18.54915436971244],[77.61019497231845,18.55009814879968],[77.61261943308973,18.54469466934617],[77.61531142100232,18.55106127849047],[77.62937742709447,18.55388751863611],[77.62774897174795,18.5483396372796],[77.63411970299963,18.54412873136967],[77.6397429417579,18.55515539469065],[77.64803313303997,18.55514304897374],[77.65219060688293,18.55200407796254],[77.64601805058743,18.53904828210614],[77.6559850649548,18.53110990407339],[77.68080443346574,18.54546653163076],[77.6884441589783,18.54516446387471],[77.7016764837184,18.55538625060637],[77.72337123323294,18.5535384202578],[77.73862325320671,18.55700113972062],[77.73976448501155,18.568842094005],[77.75046618594992,18.58943212143704],[77.74577844655163,18.62150648176105],[77.73113544149408,18.64426536894595],[77.73032298090082,18.6563027388758],[77.73582815855768,18.66120836904385],[77.73019370114963,18.66740775325243],[77.74937038586273,18.68287442611088],[77.75079017251923,18.69579486457619],[77.75967433356861,18.70686339700401],[77.77336130084106,18.7015643269708],[77.77213623401047,18.68915678117801],[77.78740797898325,18.68284980656443],[77.78988459121622,18.69535928921488],[77.79512443958025,18.69724567439495],[77.80430167692997,18.71338566692683],[77.80436659637124,18.7274494126865],[77.82763621365977,18.77087844817305],[77.83870450788996,18.80441535838747],[77.84437969197465,18.80734408099457],[77.85900390990143,18.80944936994714],[77.8711240173499,18.81935916940376],[77.88269886853419,18.8186640228115],[77.90658005256286,18.82780317817312],[77.94031979360165,18.8251976210222],[77.94784727952039,18.83074037484956],[77.94840955356109,18.84468308574773],[77.93458966441713,18.84645674712692],[77.93675329758715,18.85329867502283],[77.92868765589259,18.8551322681015],[77.9296448786266,18.86025184077857],[77.90294973846684,18.86742553007954],[77.90371862948092,18.88239068776453],[77.89126523570486,18.88258355667243],[77.88514532398165,18.90575784431207],[77.87376335929953,18.90899305456784],[77.87288395823549,18.90559418747584],[77.85717364350361,18.90391092891368],[77.84309177737518,18.90988356776057],[77.8581902042651,18.95024384282278],[77.84087966935783,18.95082807644463],[77.83200986756103,18.94306267127993],[77.81584960032716,18.94843860846622],[77.82139843583079,18.97966736145047],[77.79061077836373,18.98360106468856],[77.78731865556952,18.97363687520001],[77.77105905018313,18.9799559202743],[77.7747060489503,19.00082772025834],[77.7700396608848,19.02260834092366],[77.76190856452745,19.03320442906643],[77.76493282253425,19.06285385553964],[77.77535011639428,19.0562209519925],[77.8003466883379,19.0507179788043],[77.79691621516328,19.0727861778193],[77.80187063880645,19.07658773935002],[77.80672446988328,19.10250676427988],[77.81765082139928,19.10558711171399],[77.83138711253709,19.08627622241259],[77.85051142280098,19.08875115130131],[77.84632401741231,19.10150786497728],[77.8477826446271,19.11619799266378],[77.84167717686888,19.11829875808546],[77.83418099841931,19.13450006422902],[77.8526492077395,19.15486796965993],[77.85276358785912,19.16700813484759],[77.86061067967229,19.18054386845395],[77.8478378441617,19.18978297501513],[77.86611977038355,19.22658889384546],[77.87151640217668,19.25520797680896],[77.8901186685339,19.26107694893083],[77.90295711542204,19.25664742665922],[77.90767405019473,19.26841206105025],[77.90357078187121,19.2781442329079],[77.8656898003755,19.28400799820063],[77.86351382253677,19.30372968797554],[77.8901458258027,19.31348125623119],[77.89443492601315,19.32065329574382],[77.91165950067018,19.31644033951358],[77.92812751592886,19.3323894306659],[77.9383571762165,19.33429600636189],[77.942595125106,19.34262178201296],[77.95165620133595,19.34044051788824],[77.95377743453263,19.3397060120764],[77.96197216096104,19.33579401546841],[77.96693489278555,19.32683971374313],[77.9777436540763,19.32288775910768],[77.98507349768101,19.30993326688095],[78.01389197691819,19.29433110197931],[78.01485134081616,19.27909956590008],[78.0418277061636,19.2709781880163],[78.03615343139005,19.25081152793056],[78.040774411992,19.24410192236463],[78.05545909665037,19.23737446955257],[78.06442472939167,19.24786630212597],[78.07927402891303,19.25467487854175],[78.08236131265036,19.24304926693214],[78.08928737677395,19.23964629545604],[78.09700803794686,19.24429791166329],[78.1134720009517,19.24450540781259],[78.11704448150478,19.24862233752622],[78.14427201521791,19.2295347473592],[78.17540178969662,19.23762406808705],[78.17998205121184,19.24562445565216],[78.17692738147613,19.27865911374692],[78.1939779985645,19.31448954071438],[78.19242405848894,19.32607733076742],[78.1772090146749,19.33443039697291],[78.17242602408788,19.349850921498],[78.17214779994856,19.35956915377749],[78.17951663626813,19.36311117388742],[78.1770398205953,19.36776716533941],[78.18801783501252,19.394680794931],[78.17636095557651,19.41248807778383],[78.19573513209389,19.40702564891516],[78.20295581855348,19.41955967784976],[78.22017889214173,19.43275973411189],[78.23564002313076,19.42696827522545],[78.24466240398172,19.42902172038138],[78.24668239765421,19.43532842615345],[78.262755850094,19.44323344552928],[78.2638436892268,19.44909848730788],[78.26878903871798,19.44863601212536],[78.27054201629414,19.45631856809346],[78.28709715064566,19.4486850890932],[78.30447601720053,19.45628521297397],[78.30619594900661,19.46287548676999],[78.30932834558223,19.4812431604892],[78.29875250135188,19.4969879553503],[78.29048690965283,19.52780874545478],[78.29332084796596,19.54241601484294],[78.2840268414282,19.54159569155815],[78.27440324211226,19.55415698628588],[78.27534426449999,19.56264363931016],[78.29365562877074,19.55916533447704],[78.29737805258678,19.56807731579216],[78.30378170600761,19.56950028714058],[78.30099476147943,19.57924833688225],[78.30566029385466,19.60724367497866],[78.29399298714091,19.61961748383685],[78.29055652293184,19.64617405597071],[78.28097636710594,19.65109939441953],[78.27910372261744,19.6578140914637],[78.26274278586278,19.66523589682574],[78.27627944574314,19.69258480239092],[78.287940981276,19.6882054168879],[78.31191252301488,19.69122142216099],[78.31874445759775,19.70569568234015],[78.3432321675154,19.71347089433146],[78.33937388993827,19.7243254365705],[78.34132195713555,19.73592614950482],[78.34937572823355,19.73814606127113],[78.36475255013367,19.78140117443834],[78.35752169522523,19.80560214361688],[78.34487937773466,19.81354496059571],[78.33411502339547,19.81472894866502],[78.33651529273396,19.83805014268058],[78.31601517588926,19.84271678367041],[78.30097900036225,19.8406524453937],[78.28600748156812,19.84756995721729],[78.28509689349832,19.85667041147479],[78.29883138307224,19.87514203292759],[78.30652005362748,19.91426223481354],[78.33070895766679,19.91489026167422],[78.33424936813086,19.90583425114807],[78.32444831136816,19.89556120438205],[78.33209300616193,19.88509343697422],[78.38156386724114,19.87993059283248],[78.38612078948604,19.84612487867569],[78.42311989346751,19.81771571744355],[78.4533365894534,19.81307127401935],[78.47232335136776,19.81760482444919],[78.49091547282887,19.7927615368219],[78.50729986973992,19.79773581469842],[78.50903472666711,19.81223553679743],[78.51534244145866,19.81920225174044],[78.53175870665427,19.8187689464139],[78.54956260451185,19.82442657765174],[78.57237095708956,19.81602553804918],[78.5954854811223,19.81771894804429],[78.60986965781154,19.81715929455011],[78.62559792303313,19.80833487777743],[78.64281749901018,19.80797766891745],[78.65512306093248,19.80036550000985],[78.69829825560639,19.78904640119739],[78.70615967149764,19.77247752973421],[78.71922432690617,19.76682227650365],[78.72421012278701,19.76792819213432],[78.73008838442057,19.78039935326411],[78.74011572675822,19.78331115867353],[78.75684783813719,19.77214845812069],[78.77929802254091,19.78039997873643],[78.78781516566714,19.77561206402798],[78.79458266940082,19.76008378475033],[78.80306546248029,19.75584123053616],[78.8166818303031,19.76210239950619],[78.8248641639614,19.75455287127005],[78.84082406708893,19.76195890559203],[78.84801477329964,19.73567371628002],[78.85121122724509,19.73630317326752],[78.84948921695096,19.72214636691481],[78.85998725213895,19.68967043368831],[78.85575588750524,19.68684023598385],[78.85191256272492,19.65877970713699],[78.8576328927984,19.65811852737571],[78.8874317855057,19.65542482910407],[78.89054166910873,19.65959055916898],[78.88650946588571,19.66263390553567],[78.90237745949953,19.67021800602126],[78.91992628919853,19.66715625590035],[78.9197863546377,19.6621866275757],[78.95286346803779,19.65852313481655],[78.96191008213962,19.63762669567808],[78.95543022960376,19.6193004803164],[78.95568047433973,19.60035435457087],[78.97184422046735,19.59019621346748],[78.9728944763142,19.58257073412424],[78.95260313319868,19.56516137009641],[78.93773381321974,19.56205669042109],[78.94050374074352,19.55205184355336],[78.97428219201757,19.54956593506789],[78.98131026430553,19.56102262082326],[78.99780525912911,19.54924736746301],[78.99808829252459,19.54026636478361],[79.04607523339007,19.54851660646793],[79.07695476832453,19.53258992334394],[79.09809036347957,19.53221773064086],[79.10543891223335,19.52256510913836],[79.16139223881719,19.48845073016598],[79.16787581168242,19.47254711000514],[79.19035944488758,19.45917955917886],[79.22362935944594,19.46926991398917],[79.20388634135838,19.49426848872395],[79.20751075093064,19.50631529775124],[79.22120362876043,19.52117959570313],[79.23376809785371,19.52019687567277],[79.2400638715524,19.53543154077832],[79.23716529318452,19.5573309469866],[79.25107081085483,19.57769949964604],[79.25316572065394,19.59349076667423],[79.24445540196218,19.59506254471842],[79.2386895693129,19.60636699721699],[79.24359893640732,19.61688552042888],[79.25113890314975,19.61606732915773],[79.27299416503794,19.59903917008667],[79.30688903671803,19.59675059826967],[79.31398835908747,19.56661368027161],[79.31858965006306,19.56789348602878],[79.31849692700192,19.57691632362982],[79.3657800739003,19.57651966223385],[79.3727967817773,19.56118252934282],[79.38572120283555,19.55851998234914],[79.40175190092253,19.53863759654451],[79.41460091605796,19.53271682805766]]]},"properties":{"ST_NAME":"Chhattisgarh"}}]}